{
  "type": "FeatureCollection",
  "features": [
    {
      "type": "Feature",
      "properties": {
        "norad_id": 34998,
        "name": "COSMOS 2251 DEB",
        "group": "cosmos-2251-debris",
        "lat": 28.270241450262922,
        "lon": -175.17499639982648,
        "alt_km": 720.8333413030496,
        "timestamp": "2025-12-04T05:42:43.767803+00:00",
        "meta_object_name": "COSMOS 2251 DEB",
        "meta_object_id": "1993-036AFW",
        "meta_epoch": "2025-12-03T00:27:28.459296",
        "meta_mean_motion": 14.49214927,
        "meta_eccentricity": 0.00207984,
        "meta_inclination": 74.0093,
        "meta_ra_of_asc_node": 178.2428,
        "meta_arg_of_pericenter": 324.9753,
        "meta_mean_anomaly": 187.6358,
        "meta_ephemeris_type": 0,
        "meta_classification_type": "U",
        "meta_norad_cat_id": 34998,
        "meta_element_set_no": 999,
        "meta_rev_at_epoch": 87279,
        "meta_bstar": 0.00066768373,
        "meta_mean_motion_dot": 2.523e-05,
        "meta_mean_motion_ddot": 0,
        "tle_line1": "1 34998U 93036AFW 25337.01907939  .00002523  00000+0  66768-3 0  9999",
        "tle_line2": "2 34998  74.0093 178.2428 0020798 324.9753 187.6358 14.49214927872793"
      },
      "geometry": {
        "type": "Point",
        "coordinates": [
          -175.17499639982648,
          28.270241450262922
        ]
      }
    },
    {
      "type": "Feature",
      "properties": {
        "norad_id": 35000,
        "name": "COSMOS 2251 DEB",
        "group": "cosmos-2251-debris",
        "lat": -73.98248896212245,
        "lon": 129.53892126911853,
        "alt_km": 366.34245213789654,
        "timestamp": "2025-12-04T05:42:43.767813+00:00",
        "meta_object_name": "COSMOS 2251 DEB",
        "meta_object_id": "1993-036AFY",
        "meta_epoch": "2025-12-03T17:51:09.139392",
        "meta_mean_motion": 15.68798359,
        "meta_eccentricity": 0.00113057,
        "meta_inclination": 74.0037,
        "meta_ra_of_asc_node": 218.5611,
        "meta_arg_of_pericenter": 183.2738,
        "meta_mean_anomaly": 176.8412,
        "meta_ephemeris_type": 0,
        "meta_classification_type": "U",
        "meta_norad_cat_id": 35000,
        "meta_element_set_no": 999,
        "meta_rev_at_epoch": 88373,
        "meta_bstar": 0.0077546644,
        "meta_mean_motion_dot": 0.0098301,
        "meta_mean_motion_ddot": 0,
        "tle_line1": "1 35000U 93036AFY 25337.74385578  .00983010  00000+0  77547-2 0  9998",
        "tle_line2": "2 35000  74.0037 218.5611 0011305 183.2738 176.8412 15.68798359883736"
      },
      "geometry": {
        "type": "Point",
        "coordinates": [
          129.53892126911853,
          -73.98248896212245
        ]
      }
    },
    {
      "type": "Feature",
      "properties": {
        "norad_id": 35012,
        "name": "COSMOS 2251 DEB",
        "group": "cosmos-2251-debris",
        "lat": 59.74956895292262,
        "lon": -81.82880960391216,
        "alt_km": 786.0342739945063,
        "timestamp": "2025-12-04T05:42:43.767823+00:00",
        "meta_object_name": "COSMOS 2251 DEB",
        "meta_object_id": "1993-036AFZ",
        "meta_epoch": "2025-11-29T10:33:51.837120",
        "meta_mean_motion": 14.45521065,
        "meta_eccentricity": 0.0081636,
        "meta_inclination": 74.0181,
        "meta_ra_of_asc_node": 136.5568,
        "meta_arg_of_pericenter": 279.5143,
        "meta_mean_anomaly": 79.6796,
        "meta_ephemeris_type": 0,
        "meta_classification_type": "U",
        "meta_norad_cat_id": 35012,
        "meta_element_set_no": 999,
        "meta_rev_at_epoch": 87369,
        "meta_bstar": 0.00015191388,
        "meta_mean_motion_dot": 5.29e-06,
        "meta_mean_motion_ddot": 0,
        "tle_line1": "1 35012U 93036AFZ 25333.44018330  .00000529  00000+0  15191-3 0  9996",
        "tle_line2": "2 35012  74.0181 136.5568 0081636 279.5143  79.6796 14.45521065873693"
      },
      "geometry": {
        "type": "Point",
        "coordinates": [
          -81.82880960391216,
          59.74956895292262
        ]
      }
    },
    {
      "type": "Feature",
      "properties": {
        "norad_id": 35014,
        "name": "COSMOS 2251 DEB",
        "group": "cosmos-2251-debris",
        "lat": 38.47344274275751,
        "lon": 73.37727005897814,
        "alt_km": 648.1187178314476,
        "timestamp": "2025-12-04T05:42:43.767833+00:00",
        "meta_object_name": "COSMOS 2251 DEB",
        "meta_object_id": "1993-036AGB",
        "meta_epoch": "2025-11-29T00:10:14.201184",
        "meta_mean_motion": 14.74716562,
        "meta_eccentricity": 0.00081798,
        "meta_inclination": 73.9988,
        "meta_ra_of_asc_node": 70.4329,
        "meta_arg_of_pericenter": 241.0886,
        "meta_mean_anomaly": 118.9467,
        "meta_ephemeris_type": 0,
        "meta_classification_type": "U",
        "meta_norad_cat_id": 35014,
        "meta_element_set_no": 999,
        "meta_rev_at_epoch": 71134,
        "meta_bstar": 0.0017863262,
        "meta_mean_motion_dot": 0.00011934,
        "meta_mean_motion_ddot": 0,
        "tle_line1": "1 35014U 93036AGB 25333.00710881  .00011934  00000+0  17863-2 0  9999",
        "tle_line2": "2 35014  73.9988  70.4329 0008179 241.0886 118.9467 14.74716562711343"
      },
      "geometry": {
        "type": "Point",
        "coordinates": [
          73.37727005897814,
          38.47344274275751
        ]
      }
    },
    {
      "type": "Feature",
      "properties": {
        "norad_id": 35015,
        "name": "COSMOS 2251 DEB",
        "group": "cosmos-2251-debris",
        "lat": -31.85144832331665,
        "lon": 81.00157638823875,
        "alt_km": 742.6503958483063,
        "timestamp": "2025-12-04T05:42:43.767843+00:00",
        "meta_object_name": "COSMOS 2251 DEB",
        "meta_object_id": "1993-036AGC",
        "meta_epoch": "2025-12-01T12:49:23.800800",
        "meta_mean_motion": 14.46768601,
        "meta_eccentricity": 0.00742089,
        "meta_inclination": 73.9481,
        "meta_ra_of_asc_node": 255.7738,
        "meta_arg_of_pericenter": 127.6207,
        "meta_mean_anomaly": 48.46,
        "meta_ephemeris_type": 0,
        "meta_classification_type": "U",
        "meta_norad_cat_id": 35015,
        "meta_element_set_no": 999,
        "meta_rev_at_epoch": 65278,
        "meta_bstar": 0.00081419309,
        "meta_mean_motion_dot": 3.023e-05,
        "meta_mean_motion_ddot": 0,
        "tle_line1": "1 35015U 93036AGC 25335.53430325  .00003023  00000+0  81419-3 0  9991",
        "tle_line2": "2 35015  73.9481 255.7738 0074208 127.6207  48.4600 14.46768601652784"
      },
      "geometry": {
        "type": "Point",
        "coordinates": [
          81.00157638823875,
          -31.85144832331665
        ]
      }
    },
    {
      "type": "Feature",
      "properties": {
        "norad_id": 35016,
        "name": "COSMOS 2251 DEB",
        "group": "cosmos-2251-debris",
        "lat": -52.005163529240505,
        "lon": 151.76791566849386,
        "alt_km": 699.7505761999464,
        "timestamp": "2025-12-04T05:42:43.767853+00:00",
        "meta_object_name": "COSMOS 2251 DEB",
        "meta_object_id": "1993-036AGD",
        "meta_epoch": "2025-12-03T09:15:41.281344",
        "meta_mean_motion": 14.3502721,
        "meta_eccentricity": 0.011501,
        "meta_inclination": 73.9297,
        "meta_ra_of_asc_node": 311.6842,
        "meta_arg_of_pericenter": 230.5843,
        "meta_mean_anomaly": 283.9594,
        "meta_ephemeris_type": 0,
        "meta_classification_type": "U",
        "meta_norad_cat_id": 35016,
        "meta_element_set_no": 999,
        "meta_rev_at_epoch": 86648,
        "meta_bstar": 0.00056136775,
        "meta_mean_motion_dot": 1.695e-05,
        "meta_mean_motion_ddot": 0,
        "tle_line1": "1 35016U 93036AGD 25337.38589446  .00001695  00000+0  56137-3 0  9998",
        "tle_line2": "2 35016  73.9297 311.6842 0115010 230.5843 283.9594 14.35027210866489"
      },
      "geometry": {
        "type": "Point",
        "coordinates": [
          151.76791566849386,
          -52.005163529240505
        ]
      }
    },
    {
      "type": "Feature",
      "properties": {
        "norad_id": 35018,
        "name": "COSMOS 2251 DEB",
        "group": "cosmos-2251-debris",
        "lat": -64.66369463395154,
        "lon": -18.6466638294765,
        "alt_km": 1224.6191597533789,
        "timestamp": "2025-12-04T05:42:43.767863+00:00",
        "meta_object_name": "COSMOS 2251 DEB",
        "meta_object_id": "1993-036AGF",
        "meta_epoch": "2025-12-03T16:11:56.443776",
        "meta_mean_motion": 13.67089178,
        "meta_eccentricity": 0.03484341,
        "meta_inclination": 73.9753,
        "meta_ra_of_asc_node": 124.9092,
        "meta_arg_of_pericenter": 36.0656,
        "meta_mean_anomaly": 326.3427,
        "meta_ephemeris_type": 0,
        "meta_classification_type": "U",
        "meta_norad_cat_id": 35018,
        "meta_element_set_no": 999,
        "meta_rev_at_epoch": 83062,
        "meta_bstar": 0.0010763143,
        "meta_mean_motion_dot": 1.35e-05,
        "meta_mean_motion_ddot": 0,
        "tle_line1": "1 35018U 93036AGF 25337.67495884  .00001350  00000+0  10763-2 0  9996",
        "tle_line2": "2 35018  73.9753 124.9092 0348434  36.0656 326.3427 13.67089178830628"
      },
      "geometry": {
        "type": "Point",
        "coordinates": [
          -18.6466638294765,
          -64.66369463395154
        ]
      }
    }
  ]
}